{"type": "FeatureCollection", "features": [ {"type": "Feature", "properties": {"norad_id": 34375, "name": "IRIDIUM 33 DEB", "group": "iridium-33-debris", "lat": -15.822407564807095, "lon": 1.4743499656112187, "alt_km": 831.5257466438052, "timestamp": "2025-12-18T07:01:54.974189+00:00", "meta": {"OBJECT_NAME": "IRIDIUM 33 DEB", "OBJECT_ID": "1997-051FT", "EPOCH": "2025-12-17T13:26:35.352096", "MEAN_MOTION": 14.18001231, "ECCENTRICITY": 0.01035674, "INCLINATION": 86.4323, "RA_OF_ASC_NODE": 180.7567, "ARG_OF_PERICENTER": 111.645, "MEAN_ANOMALY": 304.0989, "EPHEMERIS_TYPE": 0, "CLASSIFICATION_TYPE": "U", "NORAD_CAT_ID": 34375, "ELEMENT_SET_NO": 999, "REV_AT_EPOCH": 86780, "BSTAR": 0.00036037752, "MEAN_MOTION_DOT": 7.98e-06, "MEAN_MOTION_DDOT": 0}, "tle": {"line1": "1 34375U 97051FT  25351.56013139  .00000798  00000+0  36038-3 0  9994", "line2": "2 34375  86.4323 180.7567 0103567 111.6450 304.0989 14.18001231867807"}}, "geometry": {"type": "Point", "coordinates": [1.4743499656112187, -15.822407564807095]}}, {"type": "Feature", "properties": {"norad_id": 34376, "name": "IRIDIUM 33 DEB", "group": "iridium-33-debris", "lat": 17.099899349749915, "lon": 5.18497628844657, "alt_km": 698.088337990087, "timestamp": "2025-12-18T07:01:54.974200+00:00", "meta": {"OBJECT_NAME": "IRIDIUM 33 DEB", "OBJECT_ID": "1997-051FU", "EPOCH": "2025-12-17T11:15:00.720576", "MEAN_MOTION": 14.6263273, "ECCENTRICITY": 0.00277539, "INCLINATION": 86.2981, "RA_OF_ASC_NODE": 4.4142, "ARG_OF_PERICENTER": 150.9794, "MEAN_ANOMALY": 209.2968, "EPHEMERIS_TYPE": 0, "CLASSIFICATION_TYPE": "U", "NORAD_CAT_ID": 34376, "ELEMENT_SET_NO": 999, "REV_AT_EPOCH": 88076, "BSTAR": 0.0010721746, "MEAN_MOTION_DOT": 5.502e-05, "MEAN_MOTION_DDOT": 0}, "tle": {"line1": "1 34376U 97051FU  25351.46875834  .00005502  00000+0  10722-2 0  9991", "line2": "2 34376  86.2981   4.4142 0027753 150.9794 209.2968 14.62632730880762"}}, "geometry": {"type": "Point", "coordinates": [5.18497628844657, 17.099899349749915]}}, {"type": "Feature", "properties": {"norad_id": 34486, "name": "IRIDIUM 33 DEB", "group": "iridium-33-debris", "lat": 0.4330918601135659, "lon": -170.5656021936645, "alt_km": 581.1507380806734, "timestamp": "2025-12-18T07:01:54.974211+00:00", "meta": {"OBJECT_NAME": "IRIDIUM 33 DEB", "OBJECT_ID": "1997-051GB", "EPOCH": "2025-12-17T01:34:32.789856", "MEAN_MOTION": 14.95995352, "ECCENTRICITY": 0.00138977, "INCLINATION": 86.393, "RA_OF_ASC_NODE": 10.0283, "ARG_OF_PERICENTER": 100.1337, "MEAN_ANOMALY": 313.5239, "EPHEMERIS_TYPE": 0, "CLASSIFICATION_TYPE": "U", "NORAD_CAT_ID": 34486, "ELEMENT_SET_NO": 999, "REV_AT_EPOCH": 89051, "BSTAR": 0.0017072639, "MEAN_MOTION_DOT": 0.00019234, "MEAN_MOTION_DDOT": 0}, "tle": {"line1": "1 34486U 97051GB  25351.06565729  .00019234  00000+0  17073-2 0  9991", "line2": "2 34486  86.3930  10.0283 0013897 100.1337 313.5239 14.95995352890514"}}, "geometry": {"type": "Point", "coordinates": [-170.5656021936645, 0.4330918601135659]}}, {"type": "Feature", "properties": {"norad_id": 34487, "name": "IRIDIUM 33 DEB", "group": "iridium-33-debris", "lat": -42.698613289638345, "lon": -166.63058455557035, "alt_km": 763.283494024322, "timestamp": "2025-12-18T07:01:54.974221+00:00", "meta": {"OBJECT_NAME": "IRIDIUM 33 DEB", "OBJECT_ID": "1997-051GC", "EPOCH": "2025-12-17T08:26:40.670304", "MEAN_MOTION": 14.43222071, "ECCENTRICITY": 0.00330822, "INCLINATION": 86.3432, "RA_OF_ASC_NODE": 10.3915, "ARG_OF_PERICENTER": 114.0104, "MEAN_ANOMALY": 261.6876, "EPHEMERIS_TYPE": 0, "CLASSIFICATION_TYPE": "U", "NORAD_CAT_ID": 34487, "ELEMENT_SET_NO": 999, "REV_AT_EPOCH": 88315, "BSTAR": 0.00016017609, "MEAN_MOTION_DOT": 5.62e-06, "MEAN_MOTION_DDOT": 0}, "tle": {"line1": "1 34487U 97051GC  25351.35185961  .00000562  00000+0  16018-3 0  9993", "line2": "2 34487  86.3432  10.3915 0033082 114.0104 261.6876 14.43222071883157"}}, "geometry": {"type": "Point", "coordinates": [-166.63058455557035, -42.698613289638345]}}, {"type": "Feature", "properties": {"norad_id": 34488, "name": "IRIDIUM 33 DEB", "group": "iridium-33-debris", "lat": 54.2438380590473, "lon": 117.93455023549515, "alt_km": 467.7956438516603, "timestamp": "2025-12-18T07:01:54.974232+00:00", "meta": {"OBJECT_NAME": "IRIDIUM 33 DEB", "OBJECT_ID": "1997-051GD", "EPOCH": "2025-12-17T21:04:21.136224", "MEAN_MOTION": 15.3067143, "ECCENTRICITY": 0.00116454, "INCLINATION": 86.3226, "RA_OF_ASC_NODE": 303.2651, "ARG_OF_PERICENTER": 42.4778, "MEAN_ANOMALY": 317.737, "EPHEMERIS_TYPE": 0, "CLASSIFICATION_TYPE": "U", "NORAD_CAT_ID": 34488, "ELEMENT_SET_NO": 999, "REV_AT_EPOCH": 89318, "BSTAR": 0.0036556344, "MEAN_MOTION_DOT": 0.00109948, "MEAN_MOTION_DDOT": 0}, "tle": {"line1": "1 34488U 97051GD  25351.87802241  .00109948  00000+0  36556-2 0  9994", "line2": "2 34488  86.3226 303.2651 0011645  42.4778 317.7370 15.30671430893182"}}, "geometry": {"type": "Point", "coordinates": [117.93455023549515, 54.2438380590473]}}, {"type": "Feature", "properties": {"norad_id": 34492, "name": "IRIDIUM 33 DEB", "group": "iridium-33-debris", "lat": -33.80825138972858, "lon": -29.984242356129958, "alt_km": 847.0703060989763, "timestamp": "2025-12-18T07:01:54.974242+00:00", "meta": {"OBJECT_NAME": "IRIDIUM 33 DEB", "OBJECT_ID": "1997-051GH", "EPOCH": "2025-12-17T10:01:30.958752", "MEAN_MOTION": 14.25820052, "ECCENTRICITY": 0.01887417, "INCLINATION": 86.4709, "RA_OF_ASC_NODE": 332.7379, "ARG_OF_PERICENTER": 222.99, "MEAN_ANOMALY": 291.1876, "EPHEMERIS_TYPE": 0, "CLASSIFICATION_TYPE": "U", "NORAD_CAT_ID": 34492, "ELEMENT_SET_NO": 999, "REV_AT_EPOCH": 85125, "BSTAR": 0.0026623829, "MEAN_MOTION_DOT": 7.653e-05, "MEAN_MOTION_DDOT": 0}, "tle": {"line1": "1 34492U 97051GH  25351.41771943  .00007653  00000+0  26624-2 0  9998", "line2": "2 34492  86.4709 332.7379 0188741 222.9900 291.1876 14.25820052851259"}}, "geometry": {"type": "Point", "coordinates": [-29.984242356129958, -33.80825138972858]}}, {"type": "Feature", "properties": {"norad_id": 34497, "name": "IRIDIUM 33 DEB", "group": "iridium-33-debris", "lat": -54.94400571944669, "lon": -124.64678746018416, "alt_km": 803.3339105291898, "timestamp": "2025-12-18T07:01:54.974253+00:00", "meta": {"OBJECT_NAME": "IRIDIUM 33 DEB", "OBJECT_ID": "1997-051GN", "EPOCH": "2025-12-17T15:30:05.778144", "MEAN_MOTION": 14.27467752, "ECCENTRICITY": 0.00784008, "INCLINATION": 86.2772, "RA_OF_ASC_NODE": 50.3054, "ARG_OF_PERICENTER": 323.5192, "MEAN_ANOMALY": 189.1471, "EPHEMERIS_TYPE": 0, "CLASSIFICATION_TYPE": "U", "NORAD_CAT_ID": 34497, "ELEMENT_SET_NO": 999, "REV_AT_EPOCH": 86953, "BSTAR": 0.00049729194, "MEAN_MOTION_DOT": 1.279e-05, "MEAN_MOTION_DDOT": 0}, "tle": {"line1": "1 34497U 97051GN  25351.64590021  .00001279  00000+0  49729-3 0  9994", "line2": "2 34497  86.2772  50.3054 0078400 323.5192 189.1471 14.27467752869539"}}, "geometry": {"type": "Point", "coordinates": [-124.64678746018416, -54.94400571944669]}}, {"type": "Feature", "properties": {"norad_id": 34508, "name": "IRIDIUM 33 DEB", "group": "iridium-33-debris", "lat": -73.72012848273293, "lon": -67.15827131051658, "alt_km": 778.0952540709359, "timestamp": "2025-12-18T07:01:54.974263+00:00", "meta": {"OBJECT_NAME": "IRIDIUM 33 DEB", "OBJECT_ID": "1997-051GZ", "EPOCH": "2025-12-17T18:10:21.228960", "MEAN_MOTION": 14.38466145, "ECCENTRICITY": 0.00664596, "INCLINATION": 86.3706, "RA_OF_ASC_NODE": 100.5162, "ARG_OF_PERICENTER": 156.8278, "MEAN_ANOMALY": 203.5942, "EPHEMERIS_TYPE": 0, "CLASSIFICATION_TYPE": "U", "NORAD_CAT_ID": 34508, "ELEMENT_SET_NO": 999, "REV_AT_EPOCH": 87381, "BSTAR": 0.00095192127, "MEAN_MOTION_DOT": 3e-05, "MEAN_MOTION_DDOT": 0}, "tle": {"line1": "1 34508U 97051GZ  25351.75719015  .00003000  00000+0  95192-3 0  9994", "line2": "2 34508  86.3706 100.5162 0066459 156.8278 203.5942 14.38466145873818"}}, "geometry": {"type": "Point", "coordinates": [-67.15827131051658, -73.72012848273293]}}, {"type": "Feature", "properties": {"norad_id": 34521, "name": "IRIDIUM 33 DEB", "group": "iridium-33-debris", "lat": -29.03393801852964, "lon": -149.88228482225207, "alt_km": 686.7257844435926, "timestamp": "2025-12-18T07:01:54.974273+00:00", "meta": {"OBJECT_NAME": "IRIDIUM 33 DEB", "OBJECT_ID": "1997-051HN", "EPOCH": "2025-12-17T20:14:00.326112", "MEAN_MOTION": 14.63409507, "ECCENTRICITY": 0.00021745, "INCLINATION": 86.3796, "RA_OF_ASC_NODE": 28.3017, "ARG_OF_PERICENTER": 190.3281, "MEAN_ANOMALY": 169.7887, "EPHEMERIS_TYPE": 0, "CLASSIFICATION_TYPE": "U", "NORAD_CAT_ID": 34521, "ELEMENT_SET_NO": 999, "REV_AT_EPOCH": 88547, "BSTAR": 0.00065322814, "MEAN_MOTION_DOT": 3.399e-05, "MEAN_MOTION_DDOT": 0}, "tle": {"line1": "1 34521U 97051HN  25351.84305933  .00003399  00000+0  65323-3 0  9993", "line2": "2 34521  86.3796  28.3017 0002174 190.3281 169.7887 14.63409507885472"}}, "geometry": {"type": "Point", "coordinates": [-149.88228482225207, -29.03393801852964]}}, {"type": "Feature", "properties": {"norad_id": 34525, "name": "IRIDIUM 33 DEB", "group": "iridium-33-debris", "lat": -20.954999194031195, "lon": 43.08153166196993, "alt_km": 755.2333032243978, "timestamp": "2025-12-18T07:01:54.974284+00:00", "meta": {"OBJECT_NAME": "IRIDIUM 33 DEB", "OBJECT_ID": "1997-051HS", "EPOCH": "2025-12-17T15:03:01.274112", "MEAN_MOTION": 14.4291718, "ECCENTRICITY": 0.00065505, "INCLINATION": 86.3725, "RA_OF_ASC_NODE": 44.7578, "ARG_OF_PERICENTER": 83.9317, "MEAN_ANOMALY": 38.4452, "EPHEMERIS_TYPE": 0, "CLASSIFICATION_TYPE": "U", "NORAD_CAT_ID": 34525, "ELEMENT_SET_NO": 999, "REV_AT_EPOCH": 88158, "BSTAR": 0.00028829346, "MEAN_MOTION_DOT": 9.83e-06, "MEAN_MOTION_DDOT": 0}, "tle": {"line1": "1 34525U 97051HS  25351.62709808  .00000983  00000+0  28829-3 0  9998", "line2": "2 34525  86.3725  44.7578 0006550  83.9317  38.4452 14.42917180881587"}}, "geometry": {"type": "Point", "coordinates": [43.08153166196993, -20.954999194031195]}}]}